GLOBALSTAR M068         
1 32266U 07048D   25141.42294013 -.00000116  00000+0 -66117-4 0  9990
2 32266  51.9911  23.8423 0001762  73.9197  97.9837 12.62822851814464
GLOBALSTAR M079         
1 37188U 10054A   25141.24460941 -.00000090  00000+0  74827-4 0  9991
2 37188  52.0030 221.8029 0000492 173.4040 204.3960 12.62264632673731
GLOBALSTAR M074         
1 37189U 10054B   25140.73834900 -.00000080  00000+0  13294-3 0  9994
2 37189  52.0008 222.6722 0000256 125.0073 349.9525 12.62269812673595
GLOBALSTAR M076         
1 37190U 10054C   25141.21851079 -.00000097  00000+0  39186-4 0  9993
2 37190  52.0018 221.3776 0000249 179.6579 199.0705 12.62262803673734
GLOBALSTAR M077         
1 37191U 10054D   25140.41249706 -.00000095  00000+0  46517-4 0  9997
2 37191  52.0048 180.6810 0000149 148.0069 225.7687 12.62268290673649
GLOBALSTAR M075         
1 37192U 10054E   25141.56247098 -.00000084  00000+0  11044-3 0  9991
2 37192  51.9950 262.6030 0000606 118.8433 323.2054 12.62265015673018
GLOBALSTAR M073         
1 37193U 10054F   25141.07434881 -.00000086  00000+0  96411-4 0  9990
2 37193  52.0034 177.8887 0000124 206.2784 175.7993 12.62271724674463
GLOBALSTAR M083         
1 37739U 11033A   25141.35272517 -.00000094  00000+0  56379-4 0  9999
2 37739  51.9834 125.8071 0000198  88.6265  59.0931 12.62263628643826
GLOBALSTAR M088         
1 37740U 11033B   25141.08743162 -.00000096  00000+0  42979-4 0  9993
2 37740  52.0067  32.1268 0000816  69.6531  73.2307 12.62245834639265
GLOBALSTAR M091         
1 37741U 11033C   25141.02327743 -.00000089  00000+0  83279-4 0  9991
2 37741  52.0016 355.8322 0000952 103.3580  47.0672 12.62267961640011
GLOBALSTAR M085         
1 37742U 11033D   25141.45869899 -.00000088  00000+0  85333-4 0  9994
2 37742  51.9874 305.5679 0000921 119.5504 270.8112 12.62268492640813
GLOBALSTAR M081         
1 37743U 11033E   25140.87764286 -.00000081  00000+0  12869-3 0  9990
2 37743  51.9967 310.1089 0000744 120.9756  26.8221 12.62264000640396
GLOBALSTAR M089         
1 37744U 11033F   25140.75852509 -.00000092  00000+0  63408-4 0  9992
2 37744  51.9933 264.7026 0000449 107.5861  40.0051 12.62269991641221
GLOBALSTAR M084         
1 38040U 11080A   25141.21747935 -.00000087  00000+0  94681-4 0  9993
2 38040  51.9982 130.5784 0000433   2.2229  10.9333 12.62266191619546
GLOBALSTAR M080         
1 38041U 11080B   25140.74853350 -.00000089  00000+0  83796-4 0  9997
2 38041  52.0031 133.5879 0000583  89.2508  81.9138 12.62263051619322
GLOBALSTAR M082         
1 38042U 11080C   25140.60544613 -.00000097  00000+0  40254-4 0  9993
2 38042  52.0070  89.4802 0000698  87.2273  83.7130 12.62266181620180
GLOBALSTAR M092         
1 38043U 11080D   25141.09973976 -.00000103  00000+0  33570-5 0  9998
2 38043  52.0059 178.3535 0000172 112.1029 266.2490 12.62264398618747
GLOBALSTAR M090         
1 38044U 11080E   25140.55263941 -.00000099  00000+0  26625-4 0  9999
2 38044  51.9883  83.4837 0000483  74.6867  96.5753 12.62270194620165
GLOBALSTAR M086         
1 38045U 11080F   25140.78624079 -.00000087  00000+0  95795-4 0  9999
2 38045  51.9896  83.3210 0000551 278.4506 115.3038 12.62271043620108
GLOBALSTAR M097         
1 39072U 13005A   25141.04293233 -.00000096  00000+0  43472-4 0  9998
2 39072  52.0066 357.0611 0000690 101.8583 258.2362 12.62272013567468
GLOBALSTAR M093         
1 39073U 13005B   25140.77888969 -.00000089  00000+0  80423-4 0  9993
2 39073  51.9830 351.2110 0000759 103.5089 256.5862 12.62264682567304
GLOBALSTAR M094         
1 39074U 13005C   25140.62052895 -.00000100  00000+0  20830-4 0  9999
2 39074  51.9962 266.0475 0000761 147.2807 212.8106 12.62270829568918
GLOBALSTAR M096         
1 39075U 13005D   25140.79216931 -.00000086  00000+0  10100-3 0  9992
2 39075  52.0085 314.0188 0000935 123.2833 236.8123 12.62271386567832
GLOBALSTAR M078         
1 39076U 13005E   25141.16148475 -.00000045  00000+0  32530-3 0  9998
2 39076  51.9894  37.4391 0001456 100.4173 259.6857 12.62263512566719
GLOBALSTAR M095         
1 39077U 13005F   25140.71277563 -.00000091  00000+0  70413-4 0  9994
2 39077  51.9820  36.0155 0000943 105.8551 254.2419 12.62269721566309
GLOBALSTAR M087         
1 52888U 22064A   25141.06018146 -.00000092  00000+0  67518-4 0  9996
2 52888  51.9965 176.3865 0000282 139.9850 220.1037 12.62263265141940
